CTC1_L_00510014-22
1 10372U 25662LX  26075.70037037  .00000000  00000+0  00000-0 0  9990
2 10372  97.5000 156.0000 0000000   0.0000 303.1111 15.10393183    13
CTC1_L_00510014-23
1 10373U 24928BQ  26075.70037037  .00000000  00000+0  00000-0 0  9995
2 10373  97.5000 156.0000 0000000   0.0000 316.4444 15.10393183    10
CTC1_L_00510014-24
1 10374U 25428TI  26075.70037037  .00000000  00000+0  00000-0 0  9992
2 10374  97.5000 156.0000 0000000   0.0000 329.7778 15.10393183    18
CTC1_L_00510014-25
1 10375U 25806VJ  26075.70037037  .00000000  00000+0  00000-0 0  9993
2 10375  97.5000 156.0000 0000000   0.0000 343.1111 15.10393183    10
CTC1_L_00510014-26
1 10376U 25393VV  26075.70037037  .00000000  00000+0  00000-0 0  9995
2 10376  97.5000 156.0000 0000000   0.0000 356.4444 15.10393183    17
CTC1_L_00510014-27
1 10377U 22728IS  26075.70037037  .00000000  00000+0  00000-0 0  9995
2 10377  97.5000 156.0000 0000000   0.0000   9.7778 15.10393183    16
CTC1_L_00510015-01
1 10378U 25507HL  26075.70037037  .00000000  00000+0  00000-0 0  9994
2 10378  97.5000 168.0000 0000000   0.0000  24.8889 15.10393183    11
CTC1_L_00510015-02
1 10379U 22937OF  26075.70037037  .00000000  00000+0  00000-0 0  9999
2 10379  97.5000 168.0000 0000000   0.0000  38.2222 15.10393183    12
CTC1_L_00510015-03
1 10380U 26951ZU  26075.70037037  .00000000  00000+0  00000-0 0  9991
2 10380  97.5000 168.0000 0000000   0.0000  51.5556 15.10393183    12
CTC1_L_00510015-04
1 10381U 25792PB  26075.70037037  .00000000  00000+0  00000-0 0  9994
2 10381  97.5000 168.0000 0000000   0.0000  64.8889 15.10393183    19
CTC1_L_00510015-05
1 10382U 25949UN  26075.70037037  .00000000  00000+0  00000-0 0  9999
2 10382  97.5000 168.0000 0000000   0.0000  78.2222 15.10393183    10
CTC1_L_00510015-06
1 10383U 22343CP  26075.70037037  .00000000  00000+0  00000-0 0  9995
2 10383  97.5000 168.0000 0000000   0.0000  91.5556 15.10393183    19
CTC1_L_00510015-07
1 10384U 25869SI  26075.70037037  .00000000  00000+0  00000-0 0  9992
2 10384  97.5000 168.0000 0000000   0.0000 104.8889 15.10393183    17
CTC1_L_00510015-08
1 10385U 24802GZ  26075.70037037  .00000000  00000+0  00000-0 0  9999
2 10385  97.5000 168.0000 0000000   0.0000 118.2222 15.10393183    18
CTC1_L_00510015-09
1 10386U 23503NF  26075.70037037  .00000000  00000+0  00000-0 0  9997
2 10386  97.5000 168.0000 0000000   0.0000 131.5556 15.10393183    17
CTC1_L_00510015-10
1 10387U 26856PN  26075.70037037  .00000000  00000+0  00000-0 0  9992
2 10387  97.5000 168.0000 0000000   0.0000 144.8889 15.10393183    14
CTC1_L_00510015-11
1 10388U 26094DF  26075.70037037  .00000000  00000+0  00000-0 0  9997
2 10388  97.5000 168.0000 0000000   0.0000 158.2222 15.10393183    15
CTC1_L_00510015-12
1 10389U 25342RH  26075.70037037  .00000000  00000+0  00000-0 0  9993
2 10389  97.5000 168.0000 0000000   0.0000 171.5556 15.10393183    14
CTC1_L_00510015-13
1 10390U 23242WI  26075.70037037  .00000000  00000+0  00000-0 0  9992
2 10390  97.5000 168.0000 0000000   0.0000 184.8889 15.10393183    12
CTC1_L_00510015-14
1 10391U 22240PR  26075.70037037  .00000000  00000+0  00000-0 0  9990
2 10391  97.5000 168.0000 0000000   0.0000 198.2222 15.10393183    13
CTC1_L_00510015-15
1 10392U 24414ZV  26075.70037037  .00000000  00000+0  00000-0 0  9996
2 10392  97.5000 168.0000 0000000   0.0000 211.5556 15.10393183    13
CTC1_L_00510015-16
1 10393U 23237PH  26075.70037037  .00000000  00000+0  00000-0 0  9999
2 10393  97.5000 168.0000 0000000   0.0000 224.8889 15.10393183    10
CTC1_L_00510015-17
1 10394U 22726UT  26075.70037037  .00000000  00000+0  00000-0 0  9992
2 10394  97.5000 168.0000 0000000   0.0000 238.2222 15.10393183    11
CTC1_L_00510015-18
1 10395U 22186BI  26075.70037037  .00000000  00000+0  00000-0 0  9993
2 10395  97.5000 168.0000 0000000   0.0000 251.5556 15.10393183    10
CTC1_L_00510015-19
1 10396U 24103RI  26075.70037037  .00000000  00000+0  00000-0 0  9995
2 10396  97.5000 168.0000 0000000   0.0000 264.8889 15.10393183    17
CTC1_L_00510015-20
1 10397U 23121YL  26075.70037037  .00000000  00000+0  00000-0 0  9995
2 10397  97.5000 168.0000 0000000   0.0000 278.2222 15.10393183    18
CTC1_L_00510015-21
1 10398U 22128WL  26075.70037037  .00000000  00000+0  00000-0 0  9992
2 10398  97.5000 168.0000 0000000   0.0000 291.5556 15.10393183    17
CTC1_L_00510015-22
1 10399U 23257JH  26075.70037037  .00000000  00000+0  00000-0 0  9997
2 10399  97.5000 168.0000 0000000   0.0000 304.8889 15.10393183    15
CTC1_L_00510015-23
1 10400U 22246NO  26075.70037037  .00000000  00000+0  00000-0 0  9997
2 10400  97.5000 168.0000 0000000   0.0000 318.2222 15.10393183    18
CTC1_L_00510015-24
1 10401U 23411LD  26075.70037037  .00000000  00000+0  00000-0 0  9993
2 10401  97.5000 168.0000 0000000   0.0000 331.5556 15.10393183    17
CTC1_L_00510015-25
1 10402U 26377VI  26075.70037037  .00000000  00000+0  00000-0 0  9998
2 10402  97.5000 168.0000 0000000   0.0000 344.8889 15.10393183    14
CTC1_L_00510015-26
1 10403U 25201QI  26075.70037037  .00000000  00000+0  00000-0 0  9994
2 10403  97.5000 168.0000 0000000   0.0000 358.2222 15.10393183    15
CTC1_L_00510015-27
1 10404U 23655ED  26075.70037037  .00000000  00000+0  00000-0 0  9996
2 10404  97.5000 168.0000 0000000   0.0000  11.5556 15.10393183    15
CTC1_L_00510016-01
1 10405U 26581GI  26075.70037037  .00000000  00000+0  00000-0 0  9998
2 10405  97.5000 180.0000 0000000   0.0000  26.6667 15.10393183    10
CTC1_L_00510016-02
1 10406U 23594SA  26075.70037037  .00000000  00000+0  00000-0 0  9990
2 10406  97.5000 180.0000 0000000   0.0000  40.0000 15.10393183    12
CTC1_L_00510016-03
1 10407U 23011CC  26075.70037037  .00000000  00000+0  00000-0 0  9995
2 10407  97.5000 180.0000 0000000   0.0000  53.3333 15.10393183    19
CTC1_L_00510016-04
1 10408U 23595RJ  26075.70037037  .00000000  00000+0  00000-0 0  9993
2 10408  97.5000 180.0000 0000000   0.0000  66.6667 15.10393183    17
CTC1_L_00510016-05
1 10409U 26477PQ  26075.70037037  .00000000  00000+0  00000-0 0  9996
2 10409  97.5000 180.0000 0000000   0.0000  80.0000 15.10393183    19
CTC1_L_00510016-06
1 10410U 24659NT  26075.70037037  .00000000  00000+0  00000-0 0  9998
2 10410  97.5000 180.0000 0000000   0.0000  93.3333 15.10393183    17
CTC1_L_00510016-07
1 10411U 22436PU  26075.70037037  .00000000  00000+0  00000-0 0  9990
2 10411  97.5000 180.0000 0000000   0.0000 106.6667 15.10393183    16
CTC1_L_00510016-08
1 10412U 22442GU  26075.70037037  .00000000  00000+0  00000-0 0  9998
2 10412  97.5000 180.0000 0000000   0.0000 120.0000 15.10393183    18
CTC1_L_00510016-09
1 10413U 24013VG  26075.70037037  .00000000  00000+0  00000-0 0  9995
2 10413  97.5000 180.0000 0000000   0.0000 133.3333 15.10393183    15
CTC1_L_00510016-10
1 10414U 23160EE  26075.70037037  .00000000  00000+0  00000-0 0  9998
2 10414  97.5000 180.0000 0000000   0.0000 146.6667 15.10393183    13
CTC1_L_00510016-11
1 10415U 23989SQ  26075.70037037  .00000000  00000+0  00000-0 0  9998
2 10415  97.5000 180.0000 0000000   0.0000 160.0000 15.10393183    15
CTC1_L_00510016-12
1 10416U 24221MU  26075.70037037  .00000000  00000+0  00000-0 0  9999
2 10416  97.5000 180.0000 0000000   0.0000 173.3333 15.10393183    12
CTC1_L_00510016-13
1 10417U 25209RL  26075.70037037  .00000000  00000+0  00000-0 0  9997
2 10417  97.5000 180.0000 0000000   0.0000 186.6667 15.10393183    10
CTC1_L_00510016-14
1 10418U 23227BF  26075.70037037  .00000000  00000+0  00000-0 0  9996
2 10418  97.5000 180.0000 0000000   0.0000 200.0000 15.10393183    13
CTC1_L_00510016-15
1 10419U 23696ZH  26075.70037037  .00000000  00000+0  00000-0 0  9997
2 10419  97.5000 180.0000 0000000   0.0000 213.3333 15.10393183    10
CTC1_L_00510016-16
1 10420U 22650ZO  26075.70037037  .00000000  00000+0  00000-0 0  9998
2 10420  97.5000 180.0000 0000000   0.0000 226.6667 15.10393183    19
CTC1_L_00510016-17
1 10421U 22148ST  26075.70037037  .00000000  00000+0  00000-0 0  9991
2 10421  97.5000 180.0000 0000000   0.0000 240.0000 15.10393183    11
CTC1_L_00510016-18
1 10422U 25755VH  26075.70037037  .00000000  00000+0  00000-0 0  9999
2 10422  97.5000 180.0000 0000000   0.0000 253.3333 15.10393183    18
CTC1_L_00510016-19
1 10423U 22595YU  26075.70037037  .00000000  00000+0  00000-0 0  9999
2 10423  97.5000 180.0000 0000000   0.0000 266.6667 15.10393183    16
CTC1_L_00510016-20
1 10424U 24913QG  26075.70037037  .00000000  00000+0  00000-0 0  9996
2 10424  97.5000 180.0000 0000000   0.0000 280.0000 15.10393183    18
CTC1_L_00510016-21
1 10425U 22355EO  26075.70037037  .00000000  00000+0  00000-0 0  9995
2 10425  97.5000 180.0000 0000000   0.0000 293.3333 15.10393183    15
CTC1_L_00510016-22
1 10426U 24686AW  26075.70037037  .00000000  00000+0  00000-0 0  9995
2 10426  97.5000 180.0000 0000000   0.0000 306.6667 15.10393183    14
CTC1_L_00510016-23
1 10427U 23856JH  26075.70037037  .00000000  00000+0  00000-0 0  9994
2 10427  97.5000 180.0000 0000000   0.0000 320.0000 15.10393183    16
CTC1_L_00510016-24
1 10428U 26898TC  26075.70037037  .00000000  00000+0  00000-0 0  9994
2 10428  97.5000 180.0000 0000000   0.0000 333.3333 15.10393183    13
CTC1_L_00510016-25
1 10429U 22698JM  26075.70037037  .00000000  00000+0  00000-0 0  9999
2 10429  97.5000 180.0000 0000000   0.0000 346.6667 15.10393183    11
CTC1_L_00510016-26
1 10430U 24232ZN  26075.70037037  .00000000  00000+0  00000-0 0  9997
2 10430  97.5000 180.0000 0000000   0.0000   0.0000 15.10393183    15
CTC1_L_00510016-27
1 10431U 24803AZ  26075.70037037  .00000000  00000+0  00000-0 0  9992
2 10431  97.5000 180.0000 0000000   0.0000  13.3333 15.10393183    12
CTC1_L_00510017-01
1 10432U 26655EX  26075.70037037  .00000000  00000+0  00000-0 0  9990
2 10432  97.5000 192.0000 0000000   0.0000  28.4444 15.10393183    16
CTC1_L_00510017-02
1 10433U 23039IZ  26075.70037037  .00000000  00000+0  00000-0 0  9994
2 10433  97.5000 192.0000 0000000   0.0000  41.7778 15.10393183    15
